#dP2023  1  1  0  0  0.00000000     289 ORBIT ITRF  BHN ESOC                    
## 2243      0.00000000   300.00000000 59945 0.0000000000000                    
+  117   G22G13G21G07G05G20G31G17G15G16G29G12G19G02G25G01G30                    
+        G24G27G06G09G03G32G26G08G10G04G18G23G14G11R09R11R22                    
+        R20R19R13R01R16R08R03R07R02R17R14R18R21R05R15R12R04                    
+        R24E11E12E19E18E14E26E24E30E08E09E01E02E07E03E04E05                    
+        E21E25E27E31E36E13E15E33E34E10C11C12C14C19C20C27C28                    
+        C22C21C29C30C23C24C26C25C32C33C34C36C37C46C45C44C43                    
+        C41C42C06C07C08C09C10C13C16C38C39C40J02J03J04  0  0                    
++         5  4  5  5  4  4  4  5  4  5  5  5  5  5  5  4  5                    
++         4  4  4  5  5  4  5  5  5  5  5  5  4  4  7  4  7                    
++         6  6  6  6  6  5  5  4  5  5  5  5  5  5  5  5  5                    
++         5  5  5  5  4  4  5  4  5  5  5  5  5  5  4  5  5                    
++         5  4  5  5  4  5  5  5  5  5  5  5  5  5  5  5  5                    
++         4  5  5  5  5  5  5  5  5  5  5  4  5  5  5  5  5                    
++         5  5  6  6  7  6  6  7  6  8  7  7  6  6  7  0  0                    
%c M  cc GPS ccc cccc cccc cccc cccc ccccc ccccc ccccc ccccc                    
%c cc cc ccc ccc cccc cccc cccc cccc ccccc ccccc ccccc ccccc                    
%f  0.0000000  0.000000000  0.00000000000  0.000000000000000                    
%f  0.0000000  0.000000000  0.00000000000  0.000000000000000                    
%i    0    0    0    0      0      0      0      0         0                    
%i    0    0    0    0      0      0      0      0         0                    
/* CCCCCCCCCCCCCCCCCCCCCCCCCCCCCCCCCCCCCCCCCCCCCCCCCCCCCCCCCCCCCCCCCCCCCCCCCCCCC
/* CCCCCCCCCCCCCCCCCCCCCCCCCCCCCCCCCCCCCCCCCCCCCCCCCCCCCCCCCCCCCCCCCCCCCCCCCCCCC
/* CCCCCCCCCCCCCCCCCCCCCCCCCCCCCCCCCCCCCCCCCCCCCCCCCCCCCCCCCCCCCCCCCCCCCCCCCCCCC
/* PCV:IGS        OL/AL:EOT11A   NONE     YN ORB:CoN CLK:CoN                    
*  2023  1  1  9 20  0.00000000                                                 
PG22 -15156.407831  -2608.293951 -21247.284165    396.689954                    
PG13  13084.224479 -11458.542065  19840.817980    451.875801                    
PG21 -16209.514028  20054.135343  -3640.062521    153.102510                    
PG07   3890.958742  16320.421985  20911.930913    265.810515                    
PG05  17462.220194  -7933.971730  18251.590670   -110.289723                    
PG20  24841.222394  -2095.974343   8866.213844    459.868030                    
PG31 -20774.500803   1517.660702 -16901.044871   -205.011701                    
PG17  12368.725062  17727.224979 -14934.230286    690.237983                    
PG15   5957.872312 -19839.774696  16019.138359      0.837177                    
PG16 -20892.788448   2728.995120  16158.376657   -525.009705                    
PG29  -3734.103800 -26220.326232   1262.893602   -577.751581                    
PG12   4886.678076 -14437.606956 -22030.043435   -322.816606                    
PG19  14956.917186   6474.559479 -21253.173127    258.227748                    
PG02   6547.412188 -21388.127791  15119.240100   -629.874198                    
PG25  -6506.611334 -16990.422827 -19747.011432    407.348642                    
PG01 -10774.210326  20307.219438 -13302.035597    230.053416                    
PG30  14997.492737   7421.721660  20761.984126   -534.283564                    
PG24  12340.958074 -21722.996408  -8709.550024    -10.384960                    
PG27 -13553.886001   7243.099663  21387.536041    138.205855                    
PG06  19278.565258   -556.883223 -18228.508952    551.035281                    
PG09   7710.533916  25151.722721   3392.811172   -243.964396                    
PG03  -2548.734453  14846.204797 -22005.364837   -374.235511                    
PG32 -14752.629460 -14425.608566 -16679.422754   -349.386093                    
PG26 -25993.152557  -3381.287704   5184.693698    239.556898                    
PG08  -8124.156481  18573.208909  16906.860860   -101.455081                    
PG10 -23656.661190 -11608.012997   4655.952852    -18.556797                    
PG04  -1328.266574  25427.096104  -7358.379011    -57.469595                    
PG18  -5819.264150 -14278.685758  21613.180650    -81.559612                    
PG23 -16177.282097 -15490.043574  14384.565435      1.296897                    
PG14  21994.766006  13549.127349   6447.794775    -57.903411                    
PG11  22950.530182 -10576.268018  -8108.689748    -68.894881                    
PR09  -7233.509657 -10238.878990 -22190.528267     96.124587                    
PR11 -24778.704415   4487.559825   4036.644851     10.315528                    
PR22 -15170.254070  11580.514554  16947.386329     64.729346                    
PR20   2604.028939 -20024.627021  15627.658576    -85.064240                    
PR19  13176.010583 -21447.481596  -4117.220792   -216.685925                    
PR13   5371.760299  10370.697745  22656.400531    -30.555514                    
PR01  -1092.565082  15077.580434 -20549.084336     20.471649                    
PR16  12707.365261 -10528.194076 -19457.528740      9.364687                    
PR08 -12756.998801    -88.262624 -22039.867257    -68.841522                    
PR03  17128.436621  15027.488369  11443.056977     70.085283                    
PR07 -17129.061657 -14620.816515 -11995.803463     47.150498                    
PR02  11695.075882  21844.251040  -5865.708930    -23.379615                    
PR17   9250.689788   5121.291601 -23198.397636    591.879468                    
PR14  22177.238025   3685.448035  12070.488938     24.121034                    
PR18  14390.778371 -11634.550343 -17559.969013     59.595706                    
PR21  -9980.537322  -3402.853353  23233.936461   -362.035413                    
PR05   1570.808727 -14774.572955  20751.472502    105.451038                    
PR15  24545.153157  -4721.862506  -5072.956223     91.951991                    
PR12 -12428.326438  10608.288503  19614.577664     23.984028                    
PR04  12730.896730    288.879704  22124.546474    170.684952                    
PR24  -1295.942639  19874.933406 -15921.210435    136.580474                    
PE11   7265.244262  15082.709401 -24411.233159    264.838095                    
PE12 -11632.817950  23708.474183 -13349.617260   -366.202193                    
PE19 -14253.707515  10613.865267 -23668.968472  -3597.782762                    
PE18  20031.675946   -620.922595 -23930.567964   -560.795970                    
PE14 -14138.169954  10096.017982  18342.580540    100.945339                    
PE26 -21210.169650   2105.436537  20551.544537  -1864.418107                    
PE24  17688.644501  16885.595122  16641.589892  -1033.642318                    
PE30   3323.715208 -16466.615048 -24383.946405  -1124.666331                    
PE08    624.718028 -27490.183854  10946.505940    -12.222948                    
PE09  12329.639928  25784.832893   7713.219379   -784.428990                    
PE01 -23040.735266   5991.272806  17596.585037   -588.058084                    
PE02  22773.524019  -6239.595095 -17839.848676     12.052575                    
PE07 -12422.661478 -25686.372886  -7872.002450    -11.727848                    
PE03  13096.300407 -13490.305154  22853.255047   -635.548695                    
PE04   -697.539208  27533.378668 -10836.247931    -26.609329                    
PE05  18083.222532   8821.241039  21706.993163   -109.466086                    
PE21 -28783.703850  -6655.863188   1930.280754   -503.687407                    
PE25  28741.119823   6860.687360  -1624.893882   -596.226212                    
PE27 -18592.875964 -16558.872321 -16022.995890   -477.061187                    
PE31  -2470.853977  16615.190101  24375.852006   -512.160250                    
PE36  20717.637906  -1461.560982 -21083.539246   -483.901487                    
PE13  -6391.698481 -15696.175327  24279.097971    430.154541                    
PE15  11877.785867 -23737.581146  13117.102628    697.103990                    
PE33 -23022.084067  17696.363319   5737.867309   -454.980588                    
PE34  22942.002910 -17851.561321  -5556.182976    -22.572190                    
PE10  -2896.410684  21360.955890 -20287.511069   -501.921218                    
PC11 -16113.122545   1542.239232  22809.272841   -203.011095                    
PC12  -8697.083165 -17631.023606  19847.146100    374.795336                    
PC14 -22112.740339  -6594.328352 -15642.720262    322.874558                    
PC19  18070.989604  -2506.741196  21142.701021   -899.532967                    
PC20  22692.490556  13377.955154   9254.301574    784.484304                    
PC27   3477.018289  23961.395000 -13877.943046     74.886781                    
PC28  -8773.672383  26398.105958   2239.413256     53.806034                    
PC22   2821.578910 -17701.391408  21380.376572   -709.138673                    
PC21 -13885.946272 -22401.547468   9161.287904   -920.534508                    
PC29  16208.950428 -13350.628087 -18381.883880     61.449143                    
PC30  14215.206097   8267.700342 -22545.331373      1.209819                    
PC23 -14626.952683  16679.241327  16931.765273   -870.872890                    
PC24 -22512.281653  -5468.634464 -15599.269975   -598.722439                    
PC26  -7275.025470 -14746.376170 -22567.006349    -58.120030                    
PC25 -26202.995842   9421.256312   2022.079485     48.467098                    
PC32  14022.134460  22300.174542  -9203.386930   -663.899019                    
PC33 -18118.649258   2537.515957 -21066.532250   -885.893919                    
PC34 -14664.850201  -6992.218493  22684.256753     73.841818                    
PC36  26571.828132  -8387.950485  -1384.266685   -726.050121                    
PC37   5318.669963  15416.552204  22649.562480   -861.649227                    
PC46  23564.958045   4136.544202  14319.658798    -23.510834                    
PC45  14236.953734 -16660.849959 -17266.832253    -42.050375                    
PC44  -4260.524528 -23992.000839  13623.299221    163.295537                    
PC43 -16455.473283  12459.927782  18765.208456     33.018039                    
PC41  -3310.212784  17379.960705 -21529.716793   -444.198553                    
PC42 -22564.269037 -14278.147943  -8040.192093   -922.887179                    
PC06 -13700.928915  39449.085593   4595.710887    209.414699                    
PC07   -624.901268  32451.655155  27032.043279     78.934526                    
PC08 -14252.906522  21226.239308 -33573.311193    526.171434                    
PC09  -8825.850260  38956.561781  12997.503265     81.823072                    
PC10   4806.343954  34521.509829  24347.395356     40.687829                    
PC13  -7498.402991  22858.458402 -34512.487979    172.481924                    
PC16 -15625.439114  38979.531640   1497.128328     90.751734                    
PC38 -21063.966811  22663.649902 -28707.518120     48.902279                    
PC39 -16596.724345  38376.355403  -4318.926335     -1.304817                    
PC40  -4619.673030  27982.745144  31271.282876    -11.542538                    
PJ02 -29216.087975  21281.894592  26714.562911     -0.452116                    
PJ03 -30888.535356  27819.569541  11711.484637     -7.976899                    
PJ04 -23237.486968  22158.986655 -22153.472342    117.060796                    
EOF                                                                             
